{"spkid": "50766100", "covariance": {"labels": ["e", "q", "tp", "node", "peri", "i"], "elements": [{"label": "e", "name": "e", "sigma": 7.93699470870014e-07, "units": null, "title": "eccentricity", "value": ".1581217051684674"}, {"name": "q", "sigma": 8.00924955583326e-07, "units": "au", "value": ".8265041469286803", "title": "perihelion distance", "label": "q"}, {"label": "tp", "units": "TDB", "value": "2457844.339867873093", "title": "time of perihelion passage", "sigma": 0.000109464051560757, "name": "tp"}, {"value": "271.0822622299962", "title": "longitude of the ascending node", "units": "deg", "sigma": 1.0124366112638e-05, "name": "om", "label": "node"}, {"label": "peri", "sigma": 4.76934162364947e-05, "name": "w", "title": "argument of perihelion", "value": "292.6197217800983", "units": "deg"}, {"units": "deg", "title": "inclination", "value": "16.60558059924087", "sigma": 3.22601892169202e-05, "name": "i", "label": "i"}], "data": [["6.299588500593407E-13", "-6.352209622401651E-13", "-7.389292025555959E-11", "-7.572879220318652E-13", "-8.867680921963157E-12", "1.308787890667917E-11"], ["-6.352209622401651E-13", "6.414807844761534E-13", "7.27950155422264E-11", "6.873996382252358E-13", "7.593196366432266E-12", "-1.343639667348198E-11"], ["-7.389292025555959E-11", "7.27950155422264E-11", "1.19823785840961E-8", "2.213925568567147E-10", "3.653930527930362E-9", "-1.058728523936857E-9"], ["-7.572879220318652E-13", "6.873996382252358E-13", "2.213925568567147E-10", "1.025027891827317E-10", "2.703721187844139E-11", "-2.010453460258268E-10"], ["-8.867680921963157E-12", "7.593196366432266E-12", "3.653930527930362E-9", "2.703721187844139E-11", "2.274661952307535E-9", "3.75506370934273E-10"], ["1.308787890667917E-11", "-1.343639667348198E-11", "-1.058728523936857E-9", "-2.010453460258268E-10", "3.75506370934273E-10", "1.040719808311497E-9"]], "epoch": "2457841.5"}, "elements": [{"label": "e", "units": null, "title": "eccentricity", "value": ".1582203263959582", "sigma": "7.9215E-7", "name": "e"}, {"sigma": "4.0959E-8", "name": "a", "units": "au", "value": ".9811379610450293", "title": "semi-major axis", "label": "a"}, {"units": "au", "title": "perihelion distance", "value": ".8259019926090199", "sigma": "7.9675E-7", "name": "q", "label": "q"}, {"units": "deg", "title": "inclination; angle with respect to x-y ecliptic plane", "value": "16.60663844249022", "name": "i", "sigma": "3.2267E-5", "label": "i"}, {"name": "om", "sigma": "1.0071E-5", "title": "longitude of the ascending node", "value": "271.032472621275", "units": "deg", "label": "node"}, {"title": "argument of perihelion", "value": "292.8701971199619", "units": "deg", "sigma": "4.7693E-5", "name": "w", "label": "peri"}, {"label": "M", "title": "mean anomaly", "value": "163.5041565562138", "units": "deg", "name": "ma", "sigma": ".00025317"}, {"label": "tp", "sigma": ".00024069", "name": "tp", "units": "TDB", "value": "2461039.279656316166", "title": "time of perihelion passage"}, {"label": "period", "units": "d", "value": "354.9715490335321", "title": "sidereal orbital period", "sigma": "2.2228E-5", "name": "per"}, {"name": "n", "sigma": "6.3506E-8", "value": "1.014165785906388", "title": "mean motion", "units": "deg/d", "label": "n"}, {"units": "au", "value": "1.136373929481039", "title": "aphelion distance", "name": "ad", "sigma": "4.7439E-8", "label": "Q"}], "epoch": "2461200.5"}